NORAD_CAT_ID,OBJECT_NAME,OBJECT_TYPE,EPOCH,MEAN_MOTION,ECCENTRICITY,INCLINATION,RA_OF_ASC_NODE,ARG_OF_PERICENTER,MEAN_ANOMALY,BSTAR,MEAN_MOTION_DOT,MEAN_MOTION_DDOT,TLE_LINE0,TLE_LINE1,TLE_LINE2,SEMIMAJOR_AXIS,PERIOD,APOGEE,PERIGEE,DECAYED
54007.0,STARLINK-5132,PAYLOAD,2024-06-24 06:40:42,15.08846335,0.0001433,53.2161,132.3682,96.6822,263.4333,8.662e-05,1.091e-05,0.0,0 STARLINK-5132,1 54007U 22125AV  24176.27826393  .00001091  00000-0  86620-4 0  9995,2 54007  53.2161 132.3682 0001433  96.6822 263.4333 15.08846335 95354,6917.861,95.437,540.717,538.735,0.0
54007.0,STARLINK-5132,PAYLOAD,2024-06-25 03:20:43,15.08841681,0.0001444,53.2164,128.5014,93.3482,266.7675,4.4349e-06,-2.17e-06,0.0,0 STARLINK-5132,1 54007U 22125AV  24177.13938847 -.00000217  00000-0  44349-5 0  9992,2 54007  53.2164 128.5014 0001444  93.3482 266.7675 15.08841681 95489,6917.875,95.437,540.739,538.741,0.0
54007.0,STARLINK-5132,PAYLOAD,2024-06-26 03:11:30,15.08841659,0.0001461,53.2171,124.0366,91.5355,268.5804,8.9256e-06,-1.46e-06,0.0,0 STARLINK-5132,1 54007U 22125AV  24178.13298764 -.00000146  00000-0  89256-5 0  9997,2 54007  53.2171 124.0366 0001461  91.5355 268.5804 15.08841659 95687,6917.875,95.437,540.751,538.73,0.0
54007.0,STARLINK-5132,PAYLOAD,2024-06-27 01:26:54,15.08837357,0.000138,53.2167,119.8787,88.2771,271.8379,-1.58e-05,-5.39e-06,0.0,0 STARLINK-5132,1 54007U 22125AV  24179.06035295 -.00000539  00000-0 -15800-4 0  9998,2 54007  53.2167 119.8787 0001380  88.2771 271.8379 15.08837357 95826,6917.888,95.438,540.708,538.799,0.0
54007.0,STARLINK-5132,PAYLOAD,2024-06-27 12:34:36,15.08840536,0.0001378,53.2171,117.8,83.9545,276.1604,4.9409e-05,4.99e-06,0.0,0 STARLINK-5132,1 54007U 22125AV  24179.52403024  .00000499  00000-0  49409-4 0  9993,2 54007  53.2171 117.8000 0001378  83.9545 276.1604 15.08840536 95849,6917.879,95.438,540.697,538.79,0.0
54007.0,STARLINK-5132,PAYLOAD,2024-06-28 02:53:05,15.08834109,0.0001522,53.2177,115.1281,106.3902,253.7258,-3.8778e-05,-9.05e-06,0.0,0 STARLINK-5132,1 54007U 22125AV  24180.12019959 -.00000905  00000-0 -38778-4 0  9992,2 54007  53.2177 115.1281 0001522 106.3902 253.7258 15.08834109 95985,6917.898,95.438,540.816,538.71,0.0
54007.0,STARLINK-5132,PAYLOAD,2024-06-28 12:25:23,15.08840005,0.0001462,53.2178,113.341,93.7233,266.3926,3.9723e-05,3.44e-06,0.0,0 STARLINK-5132,1 54007U 22125AV  24180.51763429  .00000344  00000-0  39723-4 0  9999,2 54007  53.2178 113.3410 0001462  93.7233 266.3926 15.08840005 96041,6917.88,95.438,540.757,538.734,0.0
54007.0,STARLINK-5132,PAYLOAD,2024-06-29 04:19:13,15.08857268,0.0001173,53.2159,110.3649,96.8908,263.2218,0.00017192,2.451e-05,0.0,0 STARLINK-5132,1 54007U 22125AV  24181.18001921  .00002451  00000-0  17192-3 0  9991,2 54007  53.2159 110.3649 0001173  96.8908 263.2218 15.08857268 96143,6917.828,95.436,540.504,538.881,0.0
54007.0,STARLINK-5132,PAYLOAD,2024-06-30 04:10:02,15.08839988,0.0001275,53.2167,105.9028,95.2182,264.8956,3.1639e-05,2.16e-06,0.0,0 STARLINK-5132,1 54007U 22125AV  24182.17363887  .00000216  00000-0  31639-4 0  9993,2 54007  53.2167 105.9028 0001275  95.2182 264.8956 15.08839988 96294,6917.88,95.438,540.627,538.863,0.0
54007.0,STARLINK-5132,PAYLOAD,2024-06-30 12:06:58,15.0883849,0.000133,53.217,104.4163,91.0733,269.0412,2.1091e-05,4.8e-07,0.0,0 STARLINK-5132,1 54007U 22125AV  24182.50484084  .00000048  00000-0  21091-4 0  9997,2 54007  53.2170 104.4163 0001330  91.0733 269.0412 15.08838490 96291,6917.885,95.438,540.67,538.83,0.0
54007.0,STARLINK-5132,PAYLOAD,2024-06-30 18:28:30,15.08836832,0.0001186,53.217,103.2261,92.9312,267.1816,4.5236e-05,4.32e-06,0.0,0 STARLINK-5132,1 54007U 22125AV  24182.76980110  .00000432  00000-0  45236-4 0  9990,2 54007  53.2170 103.2261 0001186  92.9312 267.1816 15.08836832 96339,6917.89,95.438,540.576,538.935,0.0
54007.0,STARLINK-5132,PAYLOAD,2024-07-01 02:25:25,15.08857755,0.0001224,53.2159,101.7424,102.1743,257.9387,2.3583e-05,8.8e-07,0.0,0 STARLINK-5132,1 54007U 22125AV  24183.10098638  .00000088  00000-0  23583-4 0  9992,2 54007  53.2159 101.7424 0001224 102.1743 257.9387 15.08857755 96433,6917.826,95.436,540.538,538.844,0.0
54007.0,STARLINK-5132,PAYLOAD,2024-07-01 11:57:44,15.0884633,0.0001344,53.2169,99.955,100.3015,259.8129,-2.5492e-05,-6.94e-06,0.0,0 STARLINK-5132,1 54007U 22125AV  24183.49843303 -.00000694  00000-0 -25492-4 0  9997,2 54007  53.2169  99.9550 0001344 100.3015 259.8129 15.08846330 96495,6917.861,95.437,540.656,538.796,0.0
54007.0,STARLINK-5132,PAYLOAD,2024-07-02 00:40:50,15.08839261,0.0001326,53.2169,97.5751,111.9504,248.1629,3.5249e-05,2.73e-06,0.0,0 STARLINK-5132,1 54007U 22125AV  24184.02835935  .00000273  00000-0  35249-4 0  9991,2 54007  53.2169  97.5751 0001326 111.9504 248.1629 15.08839261 96573,6917.883,95.438,540.665,538.83,0.0
54007.0,STARLINK-5132,PAYLOAD,2024-07-02 18:10:04,15.08840732,0.0001251,53.2153,94.307,96.009,264.1045,2.7086e-05,1.43e-06,0.0,0 STARLINK-5132,1 54007U 22125AV  24184.75699983  .00000143  00000-0  27086-4 0  9998,2 54007  53.2153  94.3070 0001251  96.0090 264.1045 15.08840732 96637,6917.878,95.438,540.609,538.878,0.0
54007.0,STARLINK-5132,PAYLOAD,2024-07-03 03:42:23,15.08850578,0.0001264,53.2169,92.5207,103.6721,256.4412,3.7583e-07,-2.82e-06,0.0,0 STARLINK-5132,1 54007U 22125AV  24185.15443326 -.00000282  00000-0  37583-6 0  9991,2 54007  53.2169  92.5207 0001264 103.6721 256.4412 15.08850578 96749,6917.848,95.437,540.587,538.839,0.0
54007.0,STARLINK-5132,PAYLOAD,2024-07-03 18:00:52,15.0883342,0.0001297,53.2167,89.8433,110.9621,249.151,4.7459e-05,4.67e-06,0.0,0 STARLINK-5132,1 54007U 22125AV  24185.75060200  .00000467  00000-0  47459-4 0  9998,2 54007  53.2167  89.8433 0001297 110.9621 249.1510 15.08833420 96838,6917.901,95.438,540.663,538.868,0.0
54007.0,STARLINK-5132,PAYLOAD,2024-07-03 21:11:38,15.08837977,0.0001283,53.2162,89.2471,111.5766,248.5363,7.8604e-05,9.63e-06,0.0,0 STARLINK-5132,1 54007U 22125AV  24185.88307917  .00000963  00000-0  78604-4 0  9998,2 54007  53.2162  89.2471 0001283 111.5766 248.5363 15.08837977 96808,6917.887,95.438,540.639,538.864,0.0
54007.0,STARLINK-5132,PAYLOAD,2024-07-04 03:33:10,15.08842025,0.0001297,53.2167,88.0613,94.5868,265.5272,8.7395e-05,1.103e-05,0.0,0 STARLINK-5132,1 54007U 22125AV  24186.14803661  .00001103  00000-0  87395-4 0  9999,2 54007  53.2167  88.0613 0001297  94.5868 265.5272 15.08842025 96893,6917.874,95.437,540.636,538.842,0.0
54007.0,STARLINK-5132,PAYLOAD,2024-07-04 21:02:25,15.0883633,0.0001135,53.2157,84.7883,99.6291,260.4829,-3.2721e-05,-8.08e-06,0.0,0 STARLINK-5132,1 54007U 22125AV  24186.87668510 -.00000808  00000-0 -32721-4 0  9997,2 54007  53.2157  84.7883 0001135  99.6291 260.4829 15.08836330 97009,6917.892,95.438,540.542,538.971,0.0
54007.0,STARLINK-5132,PAYLOAD,2024-07-04 22:37:48,15.08836966,0.0001167,53.2162,84.4909,100.5687,259.5437,-3.287e-05,-8.11e-06,0.0,0 STARLINK-5132,1 54007U 22125AV  24186.94292475 -.00000811  00000-0 -32870-4 0  9997,2 54007  53.2162  84.4909 0001167 100.5687 259.5437 15.08836966 96960,6917.89,95.438,540.562,538.947,0.0
54007.0,STARLINK-5132,PAYLOAD,2024-07-05 03:23:57,15.08843223,0.0001116,53.2164,83.6003,83.2998,276.8121,2.8533e-05,1.66e-06,0.0,0 STARLINK-5132,1 54007U 22125AV  24187.14163914  .00000166  00000-0  28533-4 0  9997,2 54007  53.2164  83.6003 0001116  83.2998 276.8121 15.08843223 97040,6917.871,95.437,540.508,538.964,0.0
54007.0,STARLINK-5132,PAYLOAD,2024-07-05 09:45:30,15.08842206,0.0001099,53.2159,82.4101,78.6805,281.431,-7.7436e-06,-4.11e-06,0.0,0 STARLINK-5132,1 54007U 22125AV  24187.40660079 -.00000411  00000-0 -77436-5 0  9992,2 54007  53.2159  82.4101 0001099  78.6805 281.4310 15.08842206 97036,6917.874,95.437,540.499,538.978,0.0
54007.0,STARLINK-5132,PAYLOAD,2024-07-05 20:53:12,15.08837226,0.0001213,53.2164,80.329,74.5501,285.5625,8.7764e-06,-1.48e-06,0.0,0 STARLINK-5132,1 54007U 22125AV  24187.87028616 -.00000148  00000-0  87764-5 0  9999,2 54007  53.2164  80.3290 0001213  74.5501 285.5625 15.08837226 97157,6917.889,95.438,540.593,538.915,0.0
54007.0,STARLINK-5132,PAYLOAD,2024-07-05 22:28:35,15.08838281,0.0001214,53.2166,80.0315,73.9583,286.1543,1.4985e-05,-4.9e-07,0.0,0 STARLINK-5132,1 54007U 22125AV  24187.93652527 -.00000049  00000-0  14985-4 0  9994,2 54007  53.2166  80.0315 0001214  73.9583 286.1543 15.08838281 97112,6917.886,95.438,540.59,538.911,0.0
54007.0,STARLINK-5132,PAYLOAD,2024-07-06 03:14:44,15.08846903,0.0001257,53.2171,79.1413,93.9102,266.2034,9.9176e-05,1.291e-05,0.0,0 STARLINK-5132,1 54007U 22125AV  24188.13523595  .00001291  00000-0  99176-4 0  9993,2 54007  53.2171  79.1413 0001257  93.9102 266.2034 15.08846903 97194,6917.859,95.437,540.594,538.855,0.0
54007.0,STARLINK-5132,PAYLOAD,2024-07-06 09:36:17,15.08843462,0.0001144,53.2163,77.9502,80.4889,279.6232,5.178e-05,5.36e-06,0.0,0 STARLINK-5132,1 54007U 22125AV  24188.40019865  .00000536  00000-0  51780-4 0  9993,2 54007  53.2163  77.9502 0001144  80.4889 279.6232 15.08843462 97182,6917.87,95.437,540.526,538.943,0.0
54007.0,STARLINK-5132,PAYLOAD,2024-07-06 20:44:00,15.08831622,0.000184,53.2179,75.8738,88.1923,271.928,-1.6267e-05,-5.47e-06,0.0,0 STARLINK-5132,1 54007U 22125AV  24188.86389362 -.00000547  00000-0 -16267-4 0  9990,2 54007  53.2179  75.8738 0001840  88.1923 271.9280 15.08831622 97301,6917.906,95.438,541.044,538.498,0.0
54007.0,STARLINK-5132,PAYLOAD,2024-07-06 22:19:23,15.08829151,0.0001593,53.2183,75.5776,93.5098,266.6077,-2.9876e-05,-7.63e-06,0.0,0 STARLINK-5132,1 54007U 22125AV  24188.93013511 -.00000763  00000-0 -29876-4 0  9998,2 54007  53.2183  75.5776 0001593  93.5098 266.6077 15.08829151 97267,6917.914,95.438,540.881,538.677,0.0
54007.0,STARLINK-5132,PAYLOAD,2024-07-07 09:27:05,15.08840511,0.0001562,53.2186,73.4925,82.631,277.4859,-6.8289e-06,-3.97e-06,0.0,0 STARLINK-5132,1 54007U 22125AV  24189.39380844 -.00000397  00000-0 -68289-5 0  9990,2 54007  53.2186  73.4925 0001562  82.6310 277.4859 15.08840511 97389,6917.879,95.438,540.824,538.663,0.0
